{
  "type": "FeatureCollection",
  "features": [
    {
      "type": "Feature",
      "properties": {
        "norad_id": 35789,
        "name": "COSMOS 2251 DEB",
        "group": "cosmos-2251-debris",
        "lat": -66.40065418902643,
        "lon": -112.82411856958537,
        "alt_km": 784.6414839136532,
        "timestamp": "2025-12-10T16:57:12.035573+00:00",
        "meta_object_name": "COSMOS 2251 DEB",
        "meta_object_id": "1993-036ASK",
        "meta_epoch": "2025-12-09T14:32:12.086016",
        "meta_mean_motion": 14.35981929,
        "meta_eccentricity": 0.0047207,
        "meta_inclination": 74.039,
        "meta_ra_of_asc_node": 290.122,
        "meta_arg_of_pericenter": 30.3577,
        "meta_mean_anomaly": 330.0294,
        "meta_ephemeris_type": 0,
        "meta_classification_type": "U",
        "meta_norad_cat_id": 35789,
        "meta_element_set_no": 999,
        "meta_rev_at_epoch": 61182,
        "meta_bstar": 0.0002497,
        "meta_mean_motion_dot": 7.08e-06,
        "meta_mean_motion_ddot": 0,
        "tle_line1": "1 35789U 93036ASK 25343.60569544  .00000708  00000+0  24970-3 0  9998",
        "tle_line2": "2 35789  74.0390 290.1220 0047207  30.3577 330.0294 14.35981929611828"
      },
      "geometry": {
        "type": "Point",
        "coordinates": [
          -112.82411856958537,
          -66.40065418902643
        ]
      }
    },
    {
      "type": "Feature",
      "properties": {
        "norad_id": 35793,
        "name": "COSMOS 2251 DEB",
        "group": "cosmos-2251-debris",
        "lat": 27.4992722312539,
        "lon": 72.7461920912363,
        "alt_km": 632.6225345069424,
        "timestamp": "2025-12-10T16:57:12.035583+00:00",
        "meta_object_name": "COSMOS 2251 DEB",
        "meta_object_id": "1993-036ASP",
        "meta_epoch": "2025-12-10T12:00:05.902848",
        "meta_mean_motion": 14.78584322,
        "meta_eccentricity": 0.0002767,
        "meta_inclination": 74.0407,
        "meta_ra_of_asc_node": 64.5844,
        "meta_arg_of_pericenter": 128.5432,
        "meta_mean_anomaly": 242.5188,
        "meta_ephemeris_type": 0,
        "meta_classification_type": "U",
        "meta_norad_cat_id": 35793,
        "meta_element_set_no": 999,
        "meta_rev_at_epoch": 65764,
        "meta_bstar": 0.0028765,
        "meta_mean_motion_dot": 0.00021082,
        "meta_mean_motion_ddot": 0,
        "tle_line1": "1 35793U 93036ASP 25344.50006832  .00021082  00000+0  28765-2 0  9992",
        "tle_line2": "2 35793  74.0407  64.5844 0002767 128.5432 242.5188 14.78584322657641"
      },
      "geometry": {
        "type": "Point",
        "coordinates": [
          72.7461920912363,
          27.4992722312539
        ]
      }
    },
    {
      "type": "Feature",
      "properties": {
        "norad_id": 35824,
        "name": "COSMOS 2251 DEB",
        "group": "cosmos-2251-debris",
        "lat": -12.129426104967457,
        "lon": 48.71565554090749,
        "alt_km": 1097.1560723042776,
        "timestamp": "2025-12-10T16:57:12.035593+00:00",
        "meta_object_name": "COSMOS 2251 DEB",
        "meta_object_id": "1993-036ASW",
        "meta_epoch": "2025-12-08T11:24:31.157568",
        "meta_mean_motion": 13.883958,
        "meta_eccentricity": 0.02494458,
        "meta_inclination": 73.8458,
        "meta_ra_of_asc_node": 56.1203,
        "meta_arg_of_pericenter": 143.0234,
        "meta_mean_anomaly": 218.8382,
        "meta_ephemeris_type": 0,
        "meta_classification_type": "U",
        "meta_norad_cat_id": 35824,
        "meta_element_set_no": 999,
        "meta_rev_at_epoch": 84168,
        "meta_bstar": 0.0020429183,
        "meta_mean_motion_dot": 3.116e-05,
        "meta_mean_motion_ddot": 0,
        "tle_line1": "1 35824U 93036ASW 25342.47536062  .00003116  00000+0  20429-2 0  9991",
        "tle_line2": "2 35824  73.8458  56.1203 0249445 143.0234 218.8382 13.88395800841685"
      },
      "geometry": {
        "type": "Point",
        "coordinates": [
          48.71565554090749,
          -12.129426104967457
        ]
      }
    },
    {
      "type": "Feature",
      "properties": {
        "norad_id": 35825,
        "name": "COSMOS 2251 DEB",
        "group": "cosmos-2251-debris",
        "lat": 49.55093694452992,
        "lon": -53.532991792551556,
        "alt_km": 1091.8006163140044,
        "timestamp": "2025-12-10T16:57:12.035604+00:00",
        "meta_object_name": "COSMOS 2251 DEB",
        "meta_object_id": "1993-036ASX",
        "meta_epoch": "2025-12-06T17:43:31.257408",
        "meta_mean_motion": 13.70908059,
        "meta_eccentricity": 0.03529553,
        "meta_inclination": 74.1125,
        "meta_ra_of_asc_node": 152.5025,
        "meta_arg_of_pericenter": 249.6557,
        "meta_mean_anomaly": 106.6316,
        "meta_ephemeris_type": 0,
        "meta_classification_type": "U",
        "meta_norad_cat_id": 35825,
        "meta_element_set_no": 999,
        "meta_rev_at_epoch": 82426,
        "meta_bstar": 0.0026115912,
        "meta_mean_motion_dot": 3.599e-05,
        "meta_mean_motion_ddot": 0,
        "tle_line1": "1 35825U 93036ASX 25340.73855622  .00003599  00000+0  26116-2 0  9999",
        "tle_line2": "2 35825  74.1125 152.5025 0352955 249.6557 106.6316 13.70908059824269"
      },
      "geometry": {
        "type": "Point",
        "coordinates": [
          -53.532991792551556,
          49.55093694452992
        ]
      }
    },
    {
      "type": "Feature",
      "properties": {
        "norad_id": 35829,
        "name": "COSMOS 2251 DEB",
        "group": "cosmos-2251-debris",
        "lat": -33.699968692198404,
        "lon": 91.77935847482777,
        "alt_km": 651.1946521012278,
        "timestamp": "2025-12-10T16:57:12.035613+00:00",
        "meta_object_name": "COSMOS 2251 DEB",
        "meta_object_id": "1993-036ATB",
        "meta_epoch": "2025-12-08T14:41:25.732032",
        "meta_mean_motion": 14.76103447,
        "meta_eccentricity": 0.0006283,
        "meta_inclination": 74.0249,
        "meta_ra_of_asc_node": 106.8945,
        "meta_arg_of_pericenter": 174.4564,
        "meta_mean_anomaly": 185.6681,
        "meta_ephemeris_type": 0,
        "meta_classification_type": "U",
        "meta_norad_cat_id": 35829,
        "meta_element_set_no": 999,
        "meta_rev_at_epoch": 87714,
        "meta_bstar": 0.0032694,
        "meta_mean_motion_dot": 0.0002262,
        "meta_mean_motion_ddot": 0,
        "tle_line1": "1 35829U 93036ATB 25342.61210338  .00022620  00000+0  32694-2 0  9995",
        "tle_line2": "2 35829  74.0249 106.8945 0006283 174.4564 185.6681 14.76103447877147"
      },
      "geometry": {
        "type": "Point",
        "coordinates": [
          91.77935847482777,
          -33.699968692198404
        ]
      }
    },
    {
      "type": "Feature",
      "properties": {
        "norad_id": 35830,
        "name": "COSMOS 2251 DEB",
        "group": "cosmos-2251-debris",
        "lat": -64.01442878730154,
        "lon": -126.30414113116363,
        "alt_km": 763.7989047070314,
        "timestamp": "2025-12-10T16:57:12.035623+00:00",
        "meta_object_name": "COSMOS 2251 DEB",
        "meta_object_id": "1993-036ATC",
        "meta_epoch": "2025-12-06T12:06:38.215008",
        "meta_mean_motion": 14.23927917,
        "meta_eccentricity": 0.01224789,
        "meta_inclination": 73.8624,
        "meta_ra_of_asc_node": 277.7805,
        "meta_arg_of_pericenter": 247.2482,
        "meta_mean_anomaly": 111.5683,
        "meta_ephemeris_type": 0,
        "meta_classification_type": "U",
        "meta_norad_cat_id": 35830,
        "meta_element_set_no": 999,
        "meta_rev_at_epoch": 61175,
        "meta_bstar": 0.0019622096,
        "meta_mean_motion_dot": 4.837e-05,
        "meta_mean_motion_ddot": 0,
        "tle_line1": "1 35830U 93036ATC 25340.50460897  .00004837  00000+0  19622-2 0  9996",
        "tle_line2": "2 35830  73.8624 277.7805 0122478 247.2482 111.5683 14.23927917611750"
      },
      "geometry": {
        "type": "Point",
        "coordinates": [
          -126.30414113116363,
          -64.01442878730154
        ]
      }
    },
    {
      "type": "Feature",
      "properties": {
        "norad_id": 35834,
        "name": "COSMOS 2251 DEB",
        "group": "cosmos-2251-debris",
        "lat": -28.575393988966272,
        "lon": 137.19156466051595,
        "alt_km": 868.751569915582,
        "timestamp": "2025-12-10T16:57:12.035633+00:00",
        "meta_object_name": "COSMOS 2251 DEB",
        "meta_object_id": "1993-036ATG",
        "meta_epoch": "2025-12-10T04:09:38.447424",
        "meta_mean_motion": 14.12975254,
        "meta_eccentricity": 0.01091936,
        "meta_inclination": 73.9311,
        "meta_ra_of_asc_node": 309.1077,
        "meta_arg_of_pericenter": 109.914,
        "meta_mean_anomaly": 268.3063,
        "meta_ephemeris_type": 0,
        "meta_classification_type": "U",
        "meta_norad_cat_id": 35834,
        "meta_element_set_no": 999,
        "meta_rev_at_epoch": 66227,
        "meta_bstar": 0.00036917198,
        "meta_mean_motion_dot": 7.04e-06,
        "meta_mean_motion_ddot": 0,
        "tle_line1": "1 35834U 93036ATG 25344.17336166  .00000704  00000+0  36917-3 0  9994",
        "tle_line2": "2 35834  73.9311 309.1077 0109193 109.9140 268.3063 14.12975254662274"
      },
      "geometry": {
        "type": "Point",
        "coordinates": [
          137.19156466051595,
          -28.575393988966272
        ]
      }
    }
  ]
}